{
    "links": {
        "self": "http://www.neowsapp.com/rest/v1/neo/3827175?api_key=iIulBulltgU6a56xZRHN4H3l9WmuAYTsLGpBGhQ2"
    },
    "id": "3827175",
    "neo_reference_id": "3827175",
    "name": "(2018 RD1)",
    "designation": "2018 RD1",
    "nasa_jpl_url": "http://ssd.jpl.nasa.gov/sbdb.cgi?sstr=3827175",
    "absolute_magnitude_h": 24.1,
    "estimated_diameter": {
        "kilometers": {
            "estimated_diameter_min": 0.040230458,
            "estimated_diameter_max": 0.0899580388
        },
        "meters": {
            "estimated_diameter_min": 40.2304579834,
            "estimated_diameter_max": 89.9580388169
        },
        "miles": {
            "estimated_diameter_min": 0.0249980399,
            "estimated_diameter_max": 0.0558973165
        },
        "feet": {
            "estimated_diameter_min": 131.9896957704,
            "estimated_diameter_max": 295.1379320721
        }
    },
    "is_potentially_hazardous_asteroid": false,
    "close_approach_data": [
        {
            "close_approach_date": "1922-10-03",
            "close_approach_date_full": "1922-Oct-03 00:59",
            "epoch_date_close_approach": -1491001260000,
            "relative_velocity": {
                "kilometers_per_second": "14.1540511674",
                "kilometers_per_hour": "50954.584202734",
                "miles_per_hour": "31661.1970564154"
            },
            "miss_distance": {
                "astronomical": "0.3296821079",
                "lunar": "128.2463399731",
                "kilometers": "49319741.118950173",
                "miles": "30645866.0636234674"
            },
            "orbiting_body": "Earth"
        },
        {
            "close_approach_date": "2018-09-08",
            "close_approach_date_full": "2018-Sep-08 01:37",
            "epoch_date_close_approach": 1536370620000,
            "relative_velocity": {
                "kilometers_per_second": "10.0573263588",
                "kilometers_per_hour": "36206.3748916508",
                "miles_per_hour": "22497.2333319816"
            },
            "miss_distance": {
                "astronomical": "0.0346569289",
                "lunar": "13.4815453421",
                "kilometers": "5184602.744181443",
                "miles": "3221562.7593841934"
            },
            "orbiting_body": "Earth"
        },
        {
            "close_approach_date": "2088-09-26",
            "close_approach_date_full": "2088-Sep-26 11:53",
            "epoch_date_close_approach": 3747037980000,
            "relative_velocity": {
                "kilometers_per_second": "12.2057617318",
                "kilometers_per_hour": "43940.7422344541",
                "miles_per_hour": "27303.0684178473"
            },
            "miss_distance": {
                "astronomical": "0.241846007",
                "lunar": "94.078096723",
                "kilometers": "36179647.51520509",
                "miles": "22480990.508566642"
            },
            "orbiting_body": "Earth"
        },
        {
            "close_approach_date": "2169-10-13",
            "close_approach_date_full": "2169-Oct-13 00:48",
            "epoch_date_close_approach": 6304524480000,
            "relative_velocity": {
                "kilometers_per_second": "16.5482348662",
                "kilometers_per_hour": "59573.6455181472",
                "miles_per_hour": "37016.7465720954"
            },
            "miss_distance": {
                "astronomical": "0.4386085881",
                "lunar": "170.6187407709",
                "kilometers": "65614910.543467347",
                "miles": "40771214.8253575086"
            },
            "orbiting_body": "Earth"
        }
    ],
    "orbital_data": {
        "orbit_id": "12",
        "orbit_determination_date": "2020-09-11 07:40:04",
        "first_observation_date": "2018-09-06",
        "last_observation_date": "2018-09-14",
        "data_arc_in_days": 8,
        "observations_used": 147,
        "orbit_uncertainty": "7",
        "minimum_orbit_intersection": ".0349516",
        "jupiter_tisserand_invariant": "4.438",
        "epoch_osculation": "2459000.5",
        "eccentricity": ".3086208755825753",
        "semi_major_axis": "1.503897111816263",
        "inclination": "17.03436091576144",
        "ascending_node_longitude": "344.379575039698",
        "orbital_period": "673.6365063026659",
        "perihelion_distance": "1.039763068381422",
        "perihelion_argument": "8.051247325220423",
        "aphelion_distance": "1.968031155251104",
        "perihelion_time": "2459050.196332222113",
        "mean_anomaly": "333.4416418460519",
        "mean_motion": ".5344128422847848",
        "equinox": "J2000",
        "orbit_class": {
            "orbit_class_type": "AMO",
            "orbit_class_description": "Near-Earth asteroid orbits similar to that of 1221 Amor",
            "orbit_class_range": "1.017 AU < q (perihelion) < 1.3 AU"
        }
    },
    "is_sentry_object": false
}